{"type": "FeatureCollection", "features": [ {"type": "Feature", "properties": {"norad_id": 61186, "name": "BEIDOU-3 M25 (C47)", "group": "beidou", "lat": -0.3365565597529403, "lon": -51.9763869578781, "alt_km": 21520.755074641274, "timestamp": "2025-12-25T11:37:44.700998+00:00", "meta": {"OBJECT_NAME": "BEIDOU-3 M25 (C47)", "OBJECT_ID": "2024-168B", "EPOCH": "2025-12-25T00:55:03.681120", "MEAN_MOTION": 1.86230021, "ECCENTRICITY": 0.0005413, "INCLINATION": 54.6311, "RA_OF_ASC_NODE": 308.2949, "ARG_OF_PERICENTER": 300.1318, "MEAN_ANOMALY": 120.184, "EPHEMERIS_TYPE": 0, "CLASSIFICATION_TYPE": "U", "NORAD_CAT_ID": 61186, "ELEMENT_SET_NO": 999, "REV_AT_EPOCH": 854, "BSTAR": 0, "MEAN_MOTION_DOT": -5.4e-07, "MEAN_MOTION_DDOT": 0}, "tle": {"line1": "1 61186U 24168B   25359.03823705 -.00000054  00000+0  00000+0 0  9993", "line2": "2 61186  54.6311 308.2949 0005413 300.1318 120.1840  1.86230021  8544"}}, "geometry": {"type": "Point", "coordinates": [-51.9763869578781, -0.3365565597529403]}}, {"type": "Feature", "properties": {"norad_id": 61187, "name": "BEIDOU-3 M27 (C49)", "group": "beidou", "lat": 35.539607406517206, "lon": 97.784543297727, "alt_km": 21530.135160256727, "timestamp": "2025-12-25T11:37:44.701010+00:00", "meta": {"OBJECT_NAME": "BEIDOU-3 M27 (C49)", "OBJECT_ID": "2024-168C", "EPOCH": "2025-12-25T00:22:38.801568", "MEAN_MOTION": 1.86230181, "ECCENTRICITY": 0.0002544, "INCLINATION": 54.6266, "RA_OF_ASC_NODE": 308.2793, "ARG_OF_PERICENTER": 341.3451, "MEAN_ANOMALY": 198.8284, "EPHEMERIS_TYPE": 0, "CLASSIFICATION_TYPE": "U", "NORAD_CAT_ID": 61187, "ELEMENT_SET_NO": 999, "REV_AT_EPOCH": 601, "BSTAR": 0, "MEAN_MOTION_DOT": -5.4e-07, "MEAN_MOTION_DDOT": 0}, "tle": {"line1": "1 61187U 24168C   25359.01572687 -.00000054  00000+0  00000+0 0  9992", "line2": "2 61187  54.6266 308.2793 0002544 341.3451 198.8284  1.86230181  6019"}}, "geometry": {"type": "Point", "coordinates": [97.784543297727, 35.539607406517206]}}]}